IRIDIUM 63              
1 25286U 98021B   25124.22637925  .00000710  00000+0  23527-3 0  9992
2 25286  86.3942 100.5762 0002462  86.4639 273.6840 14.36509337417809
IRIDIUM 69              
1 25319U 98026A   25124.23480069  .00000830  00000+0  25276-3 0  9996
2 25319  86.3936 113.9989 0003565 128.9635 231.1882 14.40924689416979
IRIDIUM 71              
1 25320U 98026B   25124.45581739  .00000722  00000+0  21812-3 0  9990
2 25320  86.3933 108.6023 0001459 153.1255 207.0021 14.41119369417549
IRIDIUM 73              
1 25344U 98032C   25124.36060385  .00001136  00000+0  27833-3 0  9991
2 25344  86.4413  65.4256 0002805  97.6246 262.5278 14.51662194424509
IRIDIUM 82              
1 25467U 98051A   25124.50264021  .00027669  00000+0  83293-3 0  9998
2 25467  86.3658 131.1830 0092695 102.2511 258.9136 15.29975476417272
